IRIDIUM 26              
1 24903U 97043A   25216.92414375  .00000273  00000+0  85075-4 0  9992
2 24903  86.3925  90.1450 0001944  84.6149 275.5270 14.37175134463740
IRIDIUM 22              
1 24907U 97043E   25216.89430253  .00000275  00000+0  88054-4 0  9997
2 24907  86.3933  93.7409 0002071  88.5075 271.6359 14.35984145463764
DUMMY MASS 1            
1 24925U 97048A   25216.80156614  .00000360  00000+0  37084-4 0  9991
2 24925  86.3350 112.8573 0006005 355.9153   4.2022 14.87019879512358
DUMMY MASS 2            
1 24926U 97048B   25216.97373016  .00000355  00000+0  36731-4 0  9999
2 24926  86.3352 114.3943 0007235   4.7405 355.3887 14.86771756512159
IRIDIUM 29              
1 24944U 97051A   25216.69088747  .00000360  00000+0  11614-3 0  9994
2 24944  86.3976 123.5622 0002357  88.0850 272.0617 14.36500892460239
IRIDIUM 33              
1 24946U 97051C   25216.72599596  .00000278  00000+0  90855-4 0  9992
2 24946  86.3893 122.8119 0005779 285.7045  74.3513 14.34918117459704
IRIDIUM 28              
1 24948U 97051E   25216.98184851  .00000277  00000+0  86176-4 0  9996
2 24948  86.3978 120.9281 0001704  79.1560 280.9829 14.37414211460852
IRIDIUM 36              
1 24967U 97056C   25216.79835238  .00000337  00000+0  10558-3 0  9990
2 24967  86.4020 152.5953 0002033  90.3192 269.8239 14.37641412459204
